[
  {
    "name": "STARLINK-37237",
    "noradId": "69185",
    "line1": "1 69185U 26114D   26168.59442897  .00089754  00000+0  51469-3 0  9994",
    "line2": "2 69185  53.1571 200.4170 0001105  92.4002 267.7146 15.78083557  4838"
  },
  {
    "name": "STARLINK-37365",
    "noradId": "69186",
    "line1": "1 69186U 26114E   26168.59474086  .00203943  00000+0  11471-2 0  9996",
    "line2": "2 69186  53.1570 200.4200 0000874 109.0687 251.0429 15.78122295  4831"
  },
  {
    "name": "STARLINK-37209",
    "noradId": "69187",
    "line1": "1 69187U 26114F   26168.59397081  .00105581  00000+0  60370-3 0  9998",
    "line2": "2 69187  53.1572 200.4146 0001143  95.3889 264.7263 15.78081539  4836"
  },
  {
    "name": "STARLINK-37359",
    "noradId": "69188",
    "line1": "1 69188U 26114G   26168.59352970  .00097869  00000+0  56037-3 0  9991",
    "line2": "2 69188  53.1571 200.4116 0001144  74.9552 285.1596 15.78082394  4830"
  },
  {
    "name": "STARLINK-37440",
    "noradId": "69189",
    "line1": "1 69189U 26114H   26168.83335647 -.02231240  00000+0 -20624-1 0  9999",
    "line2": "2 69189  53.1595 198.7054 0001141  73.0577  96.6719 15.70388622  4928"
  },
  {
    "name": "STARLINK-37282",
    "noradId": "69190",
    "line1": "1 69190U 26114J   26168.58707660  .00090951  00000+0  52160-3 0  9991",
    "line2": "2 69190  53.1572 200.3675 0001200  82.6877 277.4281 15.78076101  4836"
  },
  {
    "name": "STARLINK-37422",
    "noradId": "69191",
    "line1": "1 69191U 26114K   26168.56855626  .00213177  00000+0  10540-2 0  9998",
    "line2": "2 69191  53.1567 200.2449 0000928  73.4413 286.6712 15.80937021  4830"
  },
  {
    "name": "STARLINK-37424",
    "noradId": "69192",
    "line1": "1 69192U 26114L   26168.58718601  .00091135  00000+0  52265-3 0  9991",
    "line2": "2 69192  53.1567 200.3686 0001095  90.4882 269.6264 15.78075777  4831"
  },
  {
    "name": "STARLINK-36666",
    "noradId": "69193",
    "line1": "1 69193U 26114M   26168.83335647 -.00078787  00000+0 -39868-3 0  9999",
    "line2": "2 69193  53.1572 198.9198 0000983  86.8392 339.8962 15.80905355  4920"
  },
  {
    "name": "STARLINK-37355",
    "noradId": "69194",
    "line1": "1 69194U 26114N   26168.56801807  .00210601  00000+0  10395-2 0  9990",
    "line2": "2 69194  53.1566 200.2399 0001358 100.6369 259.4806 15.80981823  4838"
  },
  {
    "name": "STARLINK-37166",
    "noradId": "69195",
    "line1": "1 69195U 26114P   26168.56650554 -.00072057  00000+0 -36388-3 0  9996",
    "line2": "2 69195  53.1567 200.2310 0001154  89.9554 270.1601 15.80913745  4833"
  },
  {
    "name": "STARLINK-36933",
    "noradId": "69196",
    "line1": "1 69196U 26114Q   26168.56725608  .00235390  00000+0  11599-2 0  9995",
    "line2": "2 69196  53.1569 200.2360 0000990 127.2298 232.8815 15.80948138  4835"
  },
  {
    "name": "STARLINK-37419",
    "noradId": "69197",
    "line1": "1 69197U 26114R   26168.56578413  .00118465  00000+0  59524-3 0  9990",
    "line2": "2 69197  53.1565 200.2252 0000893 100.8311 259.2813 15.80883746  4831"
  },
  {
    "name": "STARLINK-37321",
    "noradId": "69198",
    "line1": "1 69198U 26114S   26168.56502502  .00288896  00000+0  14118-2 0  9992",
    "line2": "2 69198  53.1566 200.2206 0000945  86.0831 274.0300 15.80979663  4832"
  },
  {
    "name": "STARLINK-37406",
    "noradId": "69199",
    "line1": "1 69199U 26114T   26167.80566148 -.00002804  00000+0 -10705-4 0  9990",
    "line2": "2 69199  53.1564 204.0172 0002224  59.2395 300.8847 15.80781331  4718"
  },
  {
    "name": "STARLINK-37761",
    "noradId": "69200",
    "line1": "1 69200U 26114U   26168.83335647 -.02553961  00000+0 -19603-1 0  9995",
    "line2": "2 69200  53.1595 198.8840 0001022  59.0356  24.6035 15.74603791  4926"
  },
  {
    "name": "STARLINK-37754",
    "noradId": "69201",
    "line1": "1 69201U 26114V   26168.83335647 -.01768546  00000+0 -11564-1 0  9990",
    "line2": "2 69201  53.1585 198.8546 0001271  85.3640  12.5978 15.78056292  4927"
  },
  {
    "name": "STARLINK-37649",
    "noradId": "69202",
    "line1": "1 69202U 26114W   26168.56202529  .00167556  00000+0  83376-3 0  9996",
    "line2": "2 69202  53.1564 200.2001 0000969 123.7299 236.3816 15.80933461  4831"
  },
  {
    "name": "STARLINK-37604",
    "noradId": "69203",
    "line1": "1 69203U 26114X   26168.56127470  .00170535  00000+0  84813-3 0  9996",
    "line2": "2 69203  53.1563 200.1950 0000912 107.1256 252.9867 15.80936070  4839"
  },
  {
    "name": "STARLINK-37669",
    "noradId": "69204",
    "line1": "1 69204U 26114Y   26168.83335647 -.02509668  00000+0 -17058-1 0  9996",
    "line2": "2 69204  53.1581 198.8284 0001005  79.1418  31.5855 15.77863776  4921"
  },
  {
    "name": "STARLINK-37691",
    "noradId": "69205",
    "line1": "1 69205U 26114Z   26168.57570546  .00108928  00000+0  62238-3 0  9999",
    "line2": "2 69205  53.1572 200.2904 0001080  76.2282 283.8859 15.78084900  4830"
  },
  {
    "name": "STARLINK-37671",
    "noradId": "69206",
    "line1": "1 69206U 26114AA  26168.56839139  .00199482  00000+0  11221-2 0  9995",
    "line2": "2 69206  53.1578 200.2430 0000826 103.8981 256.2133 15.78133361  4836"
  },
  {
    "name": "STARLINK-37647",
    "noradId": "69207",
    "line1": "1 69207U 26114AB  26168.55977370  .00192093  00000+0  95193-3 0  9997",
    "line2": "2 69207  53.1563 200.1850 0000940 101.0225 259.0904 15.80949217  4839"
  },
  {
    "name": "STARLINK-37562",
    "noradId": "69208",
    "line1": "1 69208U 26114AC  26168.57043243  .00174888  00000+0  98770-3 0  9999",
    "line2": "2 69208  53.1575 200.2568 0000738 108.5085 251.6016 15.78120008  4839"
  },
  {
    "name": "STARLINK-37682",
    "noradId": "69209",
    "line1": "1 69209U 26114AD  26168.55677516  .00226121  00000+0  11154-2 0  9992",
    "line2": "2 69209  53.1561 200.1636 0000944  70.8532 289.2592 15.80950934  4835"
  },
  {
    "name": "STARLINK-37402",
    "noradId": "69210",
    "line1": "1 69210U 26114AE  26168.55602128  .00184349  00000+0  91466-3 0  9991",
    "line2": "2 69210  53.1562 200.1590 0000765 121.3813 238.7284 15.80945795  4838"
  },
  {
    "name": "STARLINK-37613",
    "noradId": "69211",
    "line1": "1 69211U 26115A   26168.77922918  .00024266  00000+0  44634-3 0  9995",
    "line2": "2 69211  97.2840 185.8988 0001051 103.2822 256.8546 15.49197367  4757"
  },
  {
    "name": "STARLINK-37713",
    "noradId": "69212",
    "line1": "1 69212U 26115B   26168.83335647  .00047478  00000+0  87045-3 0  9993",
    "line2": "2 69212  97.2852 186.0805 0001973  89.6892 147.3715 15.49152517  4793"
  },
  {
    "name": "STARLINK-37716",
    "noradId": "69213",
    "line1": "1 69213U 26115C   26168.83335647  .00023574  00000+0  43365-3 0  9992",
    "line2": "2 69213  97.2844 186.1371 0001828  90.0677 277.2477 15.49199492  4791"
  },
  {
    "name": "STARLINK-37620",
    "noradId": "69214",
    "line1": "1 69214U 26115D   26168.85809477  .00015888  00000+0  29304-3 0  9998",
    "line2": "2 69214  97.2836 185.9441 0000539  84.1496 275.9817 15.49204188  4768"
  }
]