OBJECT_NAME,OBJECT_ID,EPOCH,MEAN_MOTION,ECCENTRICITY,INCLINATION,RA_OF_ASC_NODE,ARG_OF_PERICENTER,MEAN_ANOMALY,EPHEMERIS_TYPE,CLASSIFICATION_TYPE,NORAD_CAT_ID,ELEMENT_SET_NO,REV_AT_EPOCH,BSTAR,MEAN_MOTION_DOT,MEAN_MOTION_DDOT
STARLINK-37237,2026-114D,2026-06-17T14:15:58.663008,15.78083557,.0001105,53.1571,200.4170,92.4002,267.7146,0,U,69185,999,483,.51469E-3,.89754E-3,0
STARLINK-37365,2026-114E,2026-06-17T14:16:25.610304,15.78122295,.0000874,53.1570,200.4200,109.0687,251.0429,0,U,69186,999,483,.11471E-2,.203943E-2,0
STARLINK-37209,2026-114F,2026-06-17T14:15:19.077984,15.78081539,.0001143,53.1572,200.4146,95.3889,264.7263,0,U,69187,999,483,.6037E-3,.105581E-2,0
STARLINK-37359,2026-114G,2026-06-17T14:14:40.966080,15.78082394,.0001144,53.1571,200.4116,74.9552,285.1596,0,U,69188,999,483,.56037E-3,.97869E-3,0
STARLINK-37440,2026-114H,2026-06-17T20:00:01.999008,15.70388622,.0001141,53.1595,198.7054,73.0577,96.6719,0,U,69189,999,492,-.20624E-1,-.223124E-1,0
STARLINK-37282,2026-114J,2026-06-17T14:05:23.418240,15.78076101,.00012,53.1572,200.3675,82.6877,277.4281,0,U,69190,999,483,.5216E-3,.90951E-3,0
STARLINK-37422,2026-114K,2026-06-17T13:38:43.260864,15.80937021,.0000928,53.1567,200.2449,73.4413,286.6712,0,U,69191,999,483,.1054E-2,.213177E-2,0
STARLINK-37424,2026-114L,2026-06-17T14:05:32.871264,15.78075777,.0001095,53.1567,200.3686,90.4882,269.6264,0,U,69192,999,483,.52265E-3,.91135E-3,0
STARLINK-36666,2026-114M,2026-06-17T20:00:01.999008,15.80905355,.0000983,53.1572,198.9198,86.8392,339.8962,0,U,69193,999,492,-.39868E-3,-.78787E-3,0
STARLINK-37355,2026-114N,2026-06-17T13:37:56.761248,15.80981823,.0001358,53.1566,200.2399,100.6369,259.4806,0,U,69194,999,483,.10395E-2,.210601E-2,0
STARLINK-37166,2026-114P,2026-06-17T13:35:46.078656,15.80913745,.0001154,53.1567,200.2310,89.9554,270.1601,0,U,69195,999,483,-.36388E-3,-.72057E-3,0
STARLINK-36933,2026-114Q,2026-06-17T13:36:50.925312,15.80948138,.000099,53.1569,200.2360,127.2298,232.8815,0,U,69196,999,483,.11599E-2,.23539E-2,0
STARLINK-37419,2026-114R,2026-06-17T13:34:43.748832,15.80883746,.0000893,53.1565,200.2252,100.8311,259.2813,0,U,69197,999,483,.59524E-3,.118465E-2,0
STARLINK-37321,2026-114S,2026-06-17T13:33:38.161728,15.80979663,.0000945,53.1566,200.2206,86.0831,274.0300,0,U,69198,999,483,.14118E-2,.288896E-2,0
STARLINK-37406,2026-114T,2026-06-16T19:20:09.151872,15.80781331,.00022241,53.1564,204.0172,59.2395,300.8847,0,U,69199,999,471,-.10705101E-4,-.2804E-4,0
STARLINK-37761,2026-114U,2026-06-17T20:00:01.999008,15.74603791,.0001022,53.1595,198.8840,59.0356,24.6035,0,U,69200,999,492,-.19603E-1,-.2553961E-1,0
STARLINK-37754,2026-114V,2026-06-17T20:00:01.999008,15.78056292,.0001271,53.1585,198.8546,85.3640,12.5978,0,U,69201,999,492,-.11564E-1,-.1768546E-1,0
STARLINK-37649,2026-114W,2026-06-17T13:29:18.985056,15.80933461,.0000969,53.1564,200.2001,123.7299,236.3816,0,U,69202,999,483,.83376E-3,.167556E-2,0
STARLINK-37604,2026-114X,2026-06-17T13:28:14.134080,15.80936070,.0000912,53.1563,200.1950,107.1256,252.9867,0,U,69203,999,483,.84813E-3,.170535E-2,0
STARLINK-37669,2026-114Y,2026-06-17T20:00:01.999008,15.77863776,.0001005,53.1581,198.8284,79.1418,31.5855,0,U,69204,999,492,-.17058E-1,-.2509668E-1,0
STARLINK-37691,2026-114Z,2026-06-17T13:49:00.951744,15.78084900,.000108,53.1572,200.2904,76.2282,283.8859,0,U,69205,999,483,.62238E-3,.108928E-2,0
STARLINK-37671,2026-114AA,2026-06-17T13:38:29.016096,15.78133361,.0000826,53.1578,200.2430,103.8981,256.2133,0,U,69206,999,483,.11221E-2,.199482E-2,0
STARLINK-37647,2026-114AB,2026-06-17T13:26:04.447680,15.80949217,.000094,53.1563,200.1850,101.0225,259.0904,0,U,69207,999,483,.95193E-3,.192093E-2,0
STARLINK-37562,2026-114AC,2026-06-17T13:41:25.361952,15.78120008,.0000738,53.1575,200.2568,108.5085,251.6016,0,U,69208,999,483,.9877E-3,.174888E-2,0
STARLINK-37682,2026-114AD,2026-06-17T13:21:45.373824,15.80950934,.0000944,53.1561,200.1636,70.8532,289.2592,0,U,69209,999,483,.11154E-2,.226121E-2,0
STARLINK-37402,2026-114AE,2026-06-17T13:20:40.238592,15.80945795,.0000765,53.1562,200.1590,121.3813,238.7284,0,U,69210,999,483,.91466E-3,.184349E-2,0
STARLINK-37613,2026-115A,2026-06-17T18:42:05.401152,15.49197367,.0001051,97.2840,185.8988,103.2822,256.8546,0,U,69211,999,475,.44634E-3,.24266E-3,0
STARLINK-37713,2026-115B,2026-06-17T20:00:01.999008,15.49152517,.0001973,97.2852,186.0805,89.6892,147.3715,0,U,69212,999,479,.87045E-3,.47478E-3,0
STARLINK-37716,2026-115C,2026-06-17T20:00:01.999008,15.49199492,.0001828,97.2844,186.1371,90.0677,277.2477,0,U,69213,999,479,.43365E-3,.23574E-3,0
STARLINK-37620,2026-115D,2026-06-17T20:35:39.388128,15.49204188,.0000539,97.2836,185.9441,84.1496,275.9817,0,U,69214,999,476,.29304E-3,.15888E-3,0
